[{"OBJECT_NAME":"STARLINK-33706","OBJECT_ID":"2025-070B","EPOCH":"2026-03-09T13:34:40.616832","MEAN_MOTION":15.27573082,"ECCENTRICITY":0.000198,"INCLINATION":42.999,"RA_OF_ASC_NODE":260.8327,"ARG_OF_PERICENTER":301.9874,"MEAN_ANOMALY":58.0785,"EPHEMERIS_TYPE":0,"CLASSIFICATION_TYPE":"U","NORAD_CAT_ID":63461,"ELEMENT_SET_NO":999,"REV_AT_EPOCH":5295,"BSTAR":0.0012348136,"MEAN_MOTION_DOT":0.00033867,"MEAN_MOTION_DDOT":0},{"OBJECT_NAME":"NOAA 17 DEB","OBJECT_ID":"2002-032AF","EPOCH":"2026-03-09T00:24:06.552000","MEAN_MOTION":15.25501717,"ECCENTRICITY":0.00030847,"INCLINATION":98.6472,"RA_OF_ASC_NODE":92.5947,"ARG_OF_PERICENTER":165.9893,"MEAN_ANOMALY":194.1428,"EPHEMERIS_TYPE":0,"CLASSIFICATION_TYPE":"U","NORAD_CAT_ID":48614,"ELEMENT_SET_NO":999,"REV_AT_EPOCH":26420,"BSTAR":0.01090047,"MEAN_MOTION_DOT":0.00286783,"MEAN_MOTION_DDOT":0}]
